[
  {
    "code": "34200178185",
    "name": "Ambarlı Metrobüs Durağı",
    "type": "METROBÜS",
    "postcode": "34310",
    "city": "İstanbul",
    "town": "Avcılar",
    "neighborhood": "Cihangir",
    "yCoor": "28.70573",
    "xCoor": "40.99521",
    "address": "Cihangir Mah. D-100 Karayolu Avcılar İstanbul"
  },
  {
    "code": "34200178184",
    "name": "Avcılar Merkez Metrobüs Durağı",
    "type": "METROBÜS",
    "postcode": "34310",
    "city": "İstanbul",
    "town": "Avcılar",
    "neighborhood": "Cihangir",
    "yCoor": "28.71336",
    "xCoor": "40.99087",
    "address": "Cihangir Mah. D-100 Karayolu Avcılar İstanbul"
  },
  {
    "code": "34200117985",
    "name": "Avcılar Metrobüs Durağı",
    "type": "METROBÜS",
    "postcode": "34320",
    "city": "İstanbul",
    "town": "Avcılar",
    "neighborhood": "Üniversite",
    "yCoor": "28.7253",
    "xCoor": "40.98437",
    "address": "Üniversite Mah. D-100 Karayolu Avcılar İstanbul"
  },
  {
    "code": "34200117983",
    "name": "İETT Kampı Metrobüs Durağı",
    "type": "METROBÜS",
    "postcode": "34315",
    "city": "İstanbul",
    "town": "Avcılar",
    "neighborhood": "Denizköşkler",
    "yCoor": "28.74556",
    "xCoor": "40.97811",
    "address": "Denizköşkler Mah. D-100 Karayolu Avcılar İstanbul"
  },
  {
    "code": "34200117984",
    "name": "Şükrübey Metrobüs Durağı",
    "type": "METROBÜS",
    "postcode": "34315",
    "city": "İstanbul",
    "town": "Avcılar",
    "neighborhood": "Denizköşkler",
    "yCoor": "28.73204",
    "xCoor": "40.97999",
    "address": "Denizköşkler Mah. Reşit Paşa Cad. Avcılar İstanbul"
  },
  {
    "code": "34200117978",
    "name": "Yenibosna-Kuleli Metrobüs Durağı",
    "type": "METROBÜS",
    "postcode": "34197",
    "city": "İstanbul",
    "town": "Bahçelievler",
    "neighborhood": "Fevzi Çakmak",
    "yCoor": "28.8348",
    "xCoor": "40.99238",
    "address": "Fevzi Çakmak Mah. D-100 Karayolu Bahçelievler İstanbul"
  },
  {
    "code": "34200117976",
    "name": "Bahçelievler Metrobüs Durağı",
    "type": "METROBÜS",
    "postcode": "34147",
    "city": "İstanbul",
    "town": "Bakırköy",
    "neighborhood": "Zuhuratbaba",
    "yCoor": "28.85827",
    "xCoor": "40.9935",
    "address": "Zuhuratbaba Mah. D-100 Karayolu Bakırköy İstanbul"
  },
  {
    "code": "34200117981",
    "name": "Cennet Mahallesi Metrobüs Durağı",
    "type": "METROBÜS",
    "postcode": "34153",
    "city": "İstanbul",
    "town": "Bakırköy",
    "neighborhood": "Şenlikköy",
    "yCoor": "28.78297",
    "xCoor": "40.98534",
    "address": "Şenlikköy Mah. D-100 Karayolu Bakırköy İstanbul"
  },
  {
    "code": "34200117975",
    "name": "İncirli-Ömür Metrobüs Durağı",
    "type": "METROBÜS",
    "postcode": "34145",
    "city": "İstanbul",
    "town": "Bakırköy",
    "neighborhood": "Kartaltepe",
    "yCoor": "28.87271",
    "xCoor": "40.99794",
    "address": "Kartaltepe Mah. D-100 Karayolu Bakırköy İstanbul"
  },
  {
    "code": "34200117979",
    "name": "Sefaköy Metrobüs Durağı",
    "type": "METROBÜS",
    "postcode": "34149",
    "city": "İstanbul",
    "town": "Bakırköy",
    "neighborhood": "Yeşilköy",
    "yCoor": "28.79914",
    "xCoor": "40.99893",
    "address": "Yeşilköy Mah. D-100 Karayolu Bakırköy İstanbul"
  },
  {
    "code": "34200117977",
    "name": "Şirinevler Metrobüs Durağı",
    "type": "METROBÜS",
    "postcode": "34158",
    "city": "İstanbul",
    "town": "Bakırköy",
    "neighborhood": "Ataköy 7-8-9-10. Kısım",
    "yCoor": "28.84626",
    "xCoor": "40.9917",
    "address": "Ataköy 7-8-9-10. Mah. D-100 Karayolu Bakırköy İstanbul"
  },
  {
    "code": "34200117980",
    "name": "Yeşilova-Florya Metrobüs Durağı",
    "type": "METROBÜS",
    "postcode": "34153",
    "city": "İstanbul",
    "town": "Bakırköy",
    "neighborhood": "Şenlikköy",
    "yCoor": "28.79082",
    "xCoor": "40.9878",
    "address": "Şenlikköy Mah. D-100 Karayolu Bakırköy İstanbul"
  },
  {
    "code": "34200117974",
    "name": "Zeytinburnu Metro Metrobüs Durağı",
    "type": "METROBÜS",
    "postcode": "34146",
    "city": "İstanbul",
    "town": "Bakırköy",
    "neighborhood": "Osmaniye",
    "yCoor": "28.89053",
    "xCoor": "41.00325",
    "address": "Osmaniye Mah. D-100 Karayolu Bakırköy İstanbul"
  },
  {
    "code": "34200117960",
    "name": "Zincirlikuyu Metrobüs Durağı",
    "type": "METROBÜS",
    "postcode": "34349",
    "city": "İstanbul",
    "town": "Beşiktaş",
    "neighborhood": "Balmumcu",
    "yCoor": "29.01355",
    "xCoor": "41.06631",
    "address": "Balmumcu Mah. Zincirlikuyu Kavşağı Beşiktaş İstanbul"
  },
  {
    "code": "34200178191",
    "name": "Beylikdüzü Belediye Metrobüs Durağı",
    "type": "METROBÜS",
    "postcode": "34520",
    "city": "İstanbul",
    "town": "Beylikdüzü",
    "neighborhood": "Büyükşehir",
    "yCoor": "28.64989",
    "xCoor": "41.01224",
    "address": "Büyükşehir Mah. D-100 Karayolu Beylikdüzü İstanbul"
  },
  {
    "code": "34200178190",
    "name": "Beylikdüzü Metrobüs Durağı",
    "type": "METROBÜS",
    "postcode": "34520",
    "city": "İstanbul",
    "town": "Beylikdüzü",
    "neighborhood": "Barış",
    "yCoor": "28.65736",
    "xCoor": "41.00938",
    "address": "Barış Mah. D-100 Karayolu Beylikdüzü İstanbul"
  },
  {
    "code": "34200178192",
    "name": "Cumhuriyet Mahallesi Metrobüs Durağı",
    "type": "METROBÜS",
    "postcode": "34520",
    "city": "İstanbul",
    "town": "Beylikdüzü",
    "neighborhood": "Cumhuriyet",
    "yCoor": "28.6412",
    "xCoor": "41.01555",
    "address": "Cumhuriyet Mah. D-100 Karayolu Beylikdüzü İstanbul"
  },
  {
    "code": "34200117966",
    "name": "Halıcıoğlu Metrobüs Durağı",
    "type": "METROBÜS",
    "postcode": "34445",
    "city": "İstanbul",
    "town": "Beyoğlu",
    "neighborhood": "Halıcıoğlu",
    "yCoor": "28.94609",
    "xCoor": "41.04853",
    "address": "Halıcıoğlu Mah. D-100 Karayolu Beyoğlu İstanbul"
  },
  {
    "code": "34200178194",
    "name": "Tüyap Metrobüs Durağı",
    "type": "METROBÜS",
    "postcode": "34500",
    "city": "İstanbul",
    "town": "Büyükçekmece",
    "neighborhood": "Cumhuriyet",
    "yCoor": "28.62495",
    "xCoor": "41.02253",
    "address": "Cumhurıyet Mah. D-100 Cad. Büyükçekmece İstanbul"
  },
  {
    "code": "34200178189",
    "name": "Güzelyurt Metrobüs Durağı",
    "type": "METROBÜS",
    "postcode": "34515",
    "city": "İstanbul",
    "town": "Esenyurt",
    "neighborhood": "Güzelyurt",
    "yCoor": "28.6647",
    "xCoor": "41.00673",
    "address": "Güzelyurt Mah. D-100 Karayolu Esenyurt İstanbul"
  },
  {
    "code": "34200178193",
    "name": "Hadımköy Metrobüs Durağı",
    "type": "METROBÜS",
    "postcode": "34522",
    "city": "İstanbul",
    "town": "Esenyurt",
    "neighborhood": "Gökevler",
    "yCoor": "28.63153",
    "xCoor": "41.0193",
    "address": "Gökevler Mah. D-100 Cad. Esenyurt İstanbul"
  },
  {
    "code": "34200178188",
    "name": "Haramidere Metrobüs Durağı",
    "type": "METROBÜS",
    "postcode": "34524",
    "city": "İstanbul",
    "town": "Esenyurt",
    "neighborhood": "Yakuplu",
    "yCoor": "28.67387",
    "xCoor": "41.00597",
    "address": "Güzelyurt Mah. D-100 Karayolu Esenyurt İstanbul"
  },
  {
    "code": "34200178187",
    "name": "Haramidere Sanayi Metrobüs Durağı",
    "type": "METROBÜS",
    "postcode": "34513",
    "city": "İstanbul",
    "town": "Esenyurt",
    "neighborhood": "Namık Kemal",
    "yCoor": "28.68556",
    "xCoor": "41.00411",
    "address": "Namık Kemal Mah. D-100 Karayolu Esenyurt İstanbul"
  },
  {
    "code": "34200178186",
    "name": "Saadet Dere Mahallesi Metrobüs Durağı",
    "type": "METROBÜS",
    "postcode": "34513",
    "city": "İstanbul",
    "town": "Esenyurt",
    "neighborhood": "Turgut Özal",
    "yCoor": "28.69381",
    "xCoor": "40.99976",
    "address": "Turgut Özal Mah. D-100 Karayolu Esenyurt İstanbul"
  },
  {
    "code": "34200117969",
    "name": "Adnan Menderes Bulvarı Metrobüs Durağı",
    "type": "METROBÜS",
    "postcode": "34055",
    "city": "İstanbul",
    "town": "Eyüp",
    "neighborhood": "Topçular",
    "yCoor": "28.92441",
    "xCoor": "41.02949",
    "address": "Topçular Mah. D-100 Karayolu Eyüp İstanbul"
  },
  {
    "code": "34200117967",
    "name": "Ayvansaray Metrobüs Durağı",
    "type": "METROBÜS",
    "postcode": "34050",
    "city": "İstanbul",
    "town": "Eyüp",
    "neighborhood": "Defterdar",
    "yCoor": "28.93717",
    "xCoor": "41.03847",
    "address": "Defterdar Mah. D-100 Karayolu Eyüp İstanbul"
  },
  {
    "code": "34200117968",
    "name": "Edirnekapı Metrobüs Durağı",
    "type": "METROBÜS",
    "postcode": "34055",
    "city": "İstanbul",
    "town": "Eyüp",
    "neighborhood": "Topçular",
    "yCoor": "28.92821",
    "xCoor": "41.03271",
    "address": "Topçular Mah. D-100 Karayolu Eyüp İstanbul"
  },
  {
    "code": "34200117973",
    "name": "Merter Metrobüs Durağı",
    "type": "METROBÜS",
    "postcode": "34173",
    "city": "İstanbul",
    "town": "Güngören",
    "neighborhood": "Abdurrahman Nafiz Gürman",
    "yCoor": "28.89748",
    "xCoor": "41.00776",
    "address": "Abdurrahman Nafiz Gürman Mah. D-100 Karayolu Güngören İstanbul"
  },
  {
    "code": "34200117955",
    "name": "Fikirtepe Metrobüs Durağı",
    "type": "METROBÜS",
    "postcode": "34720",
    "city": "İstanbul",
    "town": "Kadıköy",
    "neighborhood": "Fikirtepe",
    "yCoor": "29.04704",
    "xCoor": "40.99358",
    "address": "Fikirtepe Mah. Boğaziçi Köprüsü Yolu Kadıköy İstanbul"
  },
  {
    "code": "34200117954",
    "name": "Söğütlü Çeşme Metrobüs Durağı",
    "type": "METROBÜS",
    "postcode": "34724",
    "city": "İstanbul",
    "town": "Kadıköy",
    "neighborhood": "Zühtüpaşa",
    "yCoor": "29.03816",
    "xCoor": "40.99081",
    "address": "Zühtüpaşa Mah. Kadıköy İstanbul"
  },
  {
    "code": "34200117986",
    "name": "Uzunçayır Metrobüs Durağı",
    "type": "METROBÜS",
    "postcode": "34722",
    "city": "İstanbul",
    "town": "Kadıköy",
    "neighborhood": "Hasanpaşa",
    "yCoor": "29.05612",
    "xCoor": "40.99858",
    "address": "Hasanpaşa Mah. Boğaziçi Köprüsü Yolu Kadıköy İstanbul"
  },
  {
    "code": "34200117965",
    "name": "Okmeydanı Metrobüs Durağı",
    "type": "METROBÜS",
    "postcode": "34400",
    "city": "İstanbul",
    "town": "Kağıthane",
    "neighborhood": "Talatpaşa",
    "yCoor": "28.96152",
    "xCoor": "41.05665",
    "address": "Talatpaşa Mah. D-100 Karayolu Kağıthane İstanbul"
  },
  {
    "code": "34200117964",
    "name": "Perpa Metrobüs Durağı",
    "type": "METROBÜS",
    "postcode": "34400",
    "city": "İstanbul",
    "town": "Kağıthane",
    "neighborhood": "Talatpaşa",
    "yCoor": "28.9685",
    "xCoor": "41.06324",
    "address": "Talatpaşa Mah. D-100 Karayolu Kağıthane İstanbul"
  },
  {
    "code": "34200117963",
    "name": "SGK Okmeydanı Hastanesi Metrobüs Durağı",
    "type": "METROBÜS",
    "postcode": "34400",
    "city": "İstanbul",
    "town": "Kağıthane",
    "neighborhood": "Gürsel",
    "yCoor": "28.97325",
    "xCoor": "41.06693",
    "address": "Gürsel Mah. Gürsel Mah. D-100 Karayolu Kağıthane İstanbul"
  },
  {
    "code": "34200117982",
    "name": "Küçükçekmece Metrobüs Durağı",
    "type": "METROBÜS",
    "postcode": "34290",
    "city": "İstanbul",
    "town": "Küçükçekmece",
    "neighborhood": "Fatih",
    "yCoor": "28.76914",
    "xCoor": "40.98627",
    "address": "Fatih Mah. D-100 Karayolu Küçükçekmece İstanbul"
  },
  {
    "code": "34200117962",
    "name": "Çağlayan Metrobüs Durağı",
    "type": "METROBÜS",
    "postcode": "34384",
    "city": "İstanbul",
    "town": "Şişli",
    "neighborhood": "Kaptanpaşa",
    "yCoor": "28.9782",
    "xCoor": "41.06746",
    "address": "Kaptan Paşa Mah. D-100 Karayolu Şişli İstanbul"
  },
  {
    "code": "34200117961",
    "name": "Mecidiyeköy Metrobüs Durağı",
    "type": "METROBÜS",
    "postcode": "34381",
    "city": "İstanbul",
    "town": "Şişli",
    "neighborhood": "Kuştepe",
    "yCoor": "28.99192",
    "xCoor": "41.06701",
    "address": "Kuştepe Mah. D-100 Karayolu Şişli İstanbul"
  },
  {
    "code": "34200117956",
    "name": "Acıbadem Metrobüs Durağı",
    "type": "METROBÜS",
    "postcode": "34660",
    "city": "İstanbul",
    "town": "Üsküdar",
    "neighborhood": "Acıbadem",
    "yCoor": "29.05741",
    "xCoor": "41.01447",
    "address": "Acıbadem Mah. Boğaziçi Köprüsü Yolu Üsküdar İstanbul"
  },
  {
    "code": "34200117957",
    "name": "Altunizade Metrobüs Durağı",
    "type": "METROBÜS",
    "postcode": "34696",
    "city": "İstanbul",
    "town": "Üsküdar",
    "neighborhood": "Küçük Çamlıca",
    "yCoor": "29.04919",
    "xCoor": "41.02097",
    "address": "Küçük Çamlıca Mah. Boğaziçi Köprüsü Yolu Üsküdar İstanbul"
  },
  {
    "code": "34200117959",
    "name": "Boğazköprüsü Metrobüs Durağı",
    "type": "METROBÜS",
    "postcode": "34676",
    "city": "İstanbul",
    "town": "Üsküdar",
    "neighborhood": "Beylerbeyi",
    "yCoor": "29.04328",
    "xCoor": "41.03719",
    "address": "Beylerbeyi Mah. Üsküdar İstanbul"
  },
  {
    "code": "34200117958",
    "name": "Burhaniye Mahallesi Metrobüs Durağı",
    "type": "METROBÜS",
    "postcode": "34676",
    "city": "İstanbul",
    "town": "Üsküdar",
    "neighborhood": "Burhaniye",
    "yCoor": "29.0471",
    "xCoor": "41.03248",
    "address": "Burhaniye Mah. Üsküdar İstanbul"
  },
  {
    "code": "34200117972",
    "name": "Cevizlibağ Metrobüs Durağı",
    "type": "METROBÜS",
    "postcode": "34015",
    "city": "İstanbul",
    "town": "Zeytinburnu",
    "neighborhood": "Merkezefendi",
    "yCoor": "28.91036",
    "xCoor": "41.01608",
    "address": "Merkezefendi Mah. D-100 Karayolu Zeytinburnu İstanbul"
  },
  {
    "code": "34200117970",
    "name": "Maltepe Metrobüs Durağı",
    "type": "METROBÜS",
    "postcode": "34010",
    "city": "İstanbul",
    "town": "Zeytinburnu",
    "neighborhood": "Maltepe",
    "yCoor": "28.92168",
    "xCoor": "41.0242",
    "address": "Maltepe Mah. Topkapı Cad. Zeytinburnu İstanbul"
  },
  {
    "code": "34200117971",
    "name": "Mustafa Cambaz Metrobüs Durağı",
    "type": "METROBÜS",
    "postcode": "34010",
    "city": "İstanbul",
    "town": "Zeytinburnu",
    "neighborhood": "Maltepe",
    "yCoor": "28.91749",
    "xCoor": "41.02043",
    "address": "Maltepe Mah. D-100 Karayolu Zeytinburnu İstanbul"
  }
]